{"type": "FeatureCollection", "features": [{"type": "Feature", "properties": {"norad_id": 25590, "name": "COSMOS 2361", "group": "musson", "lat": 42.7297332326176, "lon": 163.30658833395395, "alt_km": 1004.0257082683611, "timestamp": "2025-12-04T21:36:16.142743+00:00", "meta": {"OBJECT_NAME": "COSMOS 2361", "OBJECT_ID": "1998-076A", "EPOCH": "2025-12-04T12:46:20.947296", "MEAN_MOTION": 13.73216137, "ECCENTRICITY": 0.00301472, "INCLINATION": 82.9341, "RA_OF_ASC_NODE": 350.1574, "ARG_OF_PERICENTER": 289.4583, "MEAN_ANOMALY": 189.2779, "EPHEMERIS_TYPE": 0, "CLASSIFICATION_TYPE": "U", "NORAD_CAT_ID": 25590, "ELEMENT_SET_NO": 999, "REV_AT_EPOCH": 34998, "BSTAR": 9.2083623e-05, "MEAN_MOTION_DOT": 1e-06, "MEAN_MOTION_DDOT": 0}, "tle": {"line1": "1 25590U 98076A   25338.53218689  .00000100  00000+0  92084-4 0  9991", "line2": "2 25590  82.9341 350.1574 0030147 289.4583 189.2779 13.73216137349989"}}, "geometry": {"type": "Point", "coordinates": [163.30658833395395, 42.7297332326176]}}, {"type": "Feature", "properties": {"norad_id": 26818, "name": "COSMOS 2378", "group": "musson", "lat": -3.3503176627694033, "lon": -174.04531092928212, "alt_km": 971.0995506130203, "timestamp": "2025-12-04T21:36:16.142764+00:00", "meta": {"OBJECT_NAME": "COSMOS 2378", "OBJECT_ID": "2001-023A", "EPOCH": "2025-12-04T14:16:23.013120", "MEAN_MOTION": 13.74141048, "ECCENTRICITY": 0.00319731, "INCLINATION": 82.9279, "RA_OF_ASC_NODE": 5.7647, "ARG_OF_PERICENTER": 228.135, "MEAN_ANOMALY": 245.068, "EPHEMERIS_TYPE": 0, "CLASSIFICATION_TYPE": "U", "NORAD_CAT_ID": 26818, "ELEMENT_SET_NO": 999, "REV_AT_EPOCH": 22811, "BSTAR": 9.8850746e-05, "MEAN_MOTION_DOT": 1.08e-06, "MEAN_MOTION_DDOT": 0}, "tle": {"line1": "1 26818U 01023A   25338.59471080  .00000108  00000+0  98851-4 0  9999", "line2": "2 26818  82.9279   5.7647 0031973 228.1350 245.0680 13.74141048228119"}}, "geometry": {"type": "Point", "coordinates": [-174.04531092928212, -3.3503176627694033]}}, {"type": "Feature", "properties": {"norad_id": 27436, "name": "COSMOS 2389", "group": "musson", "lat": 1.2430088092396314, "lon": -47.05721537489468, "alt_km": 977.9821638118901, "timestamp": "2025-12-04T21:36:16.142777+00:00", "meta": {"OBJECT_NAME": "COSMOS 2389", "OBJECT_ID": "2002-026A", "EPOCH": "2025-12-04T11:40:35.800608", "MEAN_MOTION": 13.75153289, "ECCENTRICITY": 0.00477642, "INCLINATION": 82.9495, "RA_OF_ASC_NODE": 313.0951, "ARG_OF_PERICENTER": 83.161, "MEAN_ANOMALY": 32.0491, "EPHEMERIS_TYPE": 0, "CLASSIFICATION_TYPE": "U", "NORAD_CAT_ID": 27436, "ELEMENT_SET_NO": 999, "REV_AT_EPOCH": 18035, "BSTAR": 6.7142254e-05, "MEAN_MOTION_DOT": 8e-07, "MEAN_MOTION_DDOT": 0}, "tle": {"line1": "1 27436U 02026A   25338.48652547  .00000080  00000+0  67142-4 0  9995", "line2": "2 27436  82.9495 313.0951 0047764  83.1610  32.0491 13.75153289180350"}}, "geometry": {"type": "Point", "coordinates": [-47.05721537489468, 1.2430088092396314]}}, {"type": "Feature", "properties": {"norad_id": 27818, "name": "COSMOS 2398", "group": "musson", "lat": 31.890415654843636, "lon": -77.10693936682947, "alt_km": 993.4217642829417, "timestamp": "2025-12-04T21:36:16.142789+00:00", "meta": {"OBJECT_NAME": "COSMOS 2398", "OBJECT_ID": "2003-023A", "EPOCH": "2025-12-04T15:17:44.872224", "MEAN_MOTION": 13.72384546, "ECCENTRICITY": 0.00322721, "INCLINATION": 82.9476, "RA_OF_ASC_NODE": 278.6693, "ARG_OF_PERICENTER": 133.5525, "MEAN_ANOMALY": 41.1053, "EPHEMERIS_TYPE": 0, "CLASSIFICATION_TYPE": "U", "NORAD_CAT_ID": 27818, "ELEMENT_SET_NO": 999, "REV_AT_EPOCH": 12705, "BSTAR": 7.1531758e-05, "MEAN_MOTION_DOT": 8.1e-07, "MEAN_MOTION_DDOT": 0}, "tle": {"line1": "1 27818U 03023A   25338.63732491  .00000081  00000+0  71532-4 0  9990", "line2": "2 27818  82.9476 278.6693 0032272 133.5525  41.1053 13.72384546127057"}}, "geometry": {"type": "Point", "coordinates": [-77.10693936682947, 31.890415654843636]}}, {"type": "Feature", "properties": {"norad_id": 28380, "name": "COSMOS 2407", "group": "musson", "lat": 61.19371461818633, "lon": 25.71328651715232, "alt_km": 948.7979896236666, "timestamp": "2025-12-04T21:36:16.142800+00:00", "meta": {"OBJECT_NAME": "COSMOS 2407", "OBJECT_ID": "2004-028A", "EPOCH": "2025-12-04T16:05:12.556608", "MEAN_MOTION": 13.76312357, "ECCENTRICITY": 0.00405149, "INCLINATION": 82.9614, "RA_OF_ASC_NODE": 218.8668, "ARG_OF_PERICENTER": 76.7297, "MEAN_ANOMALY": 342.4544, "EPHEMERIS_TYPE": 0, "CLASSIFICATION_TYPE": "U", "NORAD_CAT_ID": 28380, "ELEMENT_SET_NO": 999, "REV_AT_EPOCH": 7312, "BSTAR": 0.00011515921, "MEAN_MOTION_DOT": 1.29e-06, "MEAN_MOTION_DDOT": 0}, "tle": {"line1": "1 28380U 04028A   25338.67028422  .00000129  00000+0  11516-3 0  9995", "line2": "2 28380  82.9614 218.8668 0040514  76.7297 342.4544 13.76312357 73121"}}, "geometry": {"type": "Point", "coordinates": [25.71328651715232, 61.19371461818633]}}, {"type": "Feature", "properties": {"norad_id": 28521, "name": "COSMOS 2414", "group": "musson", "lat": 53.35231459359142, "lon": -159.83737791205508, "alt_km": 939.8464702931669, "timestamp": "2025-12-04T21:36:16.142811+00:00", "meta": {"OBJECT_NAME": "COSMOS 2414", "OBJECT_ID": "2005-002A", "EPOCH": "2025-12-04T14:25:23.379456", "MEAN_MOTION": 13.87901395, "ECCENTRICITY": 0.00403946, "INCLINATION": 82.9499, "RA_OF_ASC_NODE": 190.8139, "ARG_OF_PERICENTER": 162.5505, "MEAN_ANOMALY": 197.7057, "EPHEMERIS_TYPE": 0, "CLASSIFICATION_TYPE": "U", "NORAD_CAT_ID": 28521, "ELEMENT_SET_NO": 999, "REV_AT_EPOCH": 5682, "BSTAR": 0.00010323576, "MEAN_MOTION_DOT": 1.39e-06, "MEAN_MOTION_DDOT": 0}, "tle": {"line1": "1 28521U 05002A   25338.60096504  .00000139  00000+0  10324-3 0  9991", "line2": "2 28521  82.9499 190.8139 0040394 162.5505 197.7057 13.87901395 56829"}}, "geometry": {"type": "Point", "coordinates": [-159.83737791205508, 53.35231459359142]}}, {"type": "Feature", "properties": {"norad_id": 32052, "name": "COSMOS 2429", "group": "musson", "lat": -8.329319618982634, "lon": 170.1222961297289, "alt_km": 1003.3797532059007, "timestamp": "2025-12-04T21:36:16.142821+00:00", "meta": {"OBJECT_NAME": "COSMOS 2429", "OBJECT_ID": "2007-038A", "EPOCH": "2025-12-04T13:42:37.356480", "MEAN_MOTION": 13.75148197, "ECCENTRICITY": 0.00395821, "INCLINATION": 82.9804, "RA_OF_ASC_NODE": 349.3311, "ARG_OF_PERICENTER": 60.0782, "MEAN_ANOMALY": 300.4296, "EPHEMERIS_TYPE": 0, "CLASSIFICATION_TYPE": "U", "NORAD_CAT_ID": 32052, "ELEMENT_SET_NO": 999, "REV_AT_EPOCH": 91490, "BSTAR": 7.4424835e-05, "MEAN_MOTION_DOT": 8.7e-07, "MEAN_MOTION_DDOT": 0}, "tle": {"line1": "1 32052U 07038A   25338.57126570  .00000087  00000+0  74425-4 0  9994", "line2": "2 32052  82.9804 349.3311 0039582  60.0782 300.4296 13.75148197914902"}}, "geometry": {"type": "Point", "coordinates": [170.1222961297289, -8.329319618982634]}}, {"type": "Feature", "properties": {"norad_id": 35635, "name": "COSMOS 2454", "group": "musson", "lat": 46.84698984822254, "lon": -177.83383122075224, "alt_km": 914.5634369725622, "timestamp": "2025-12-04T21:36:16.142831+00:00", "meta": {"OBJECT_NAME": "COSMOS 2454", "OBJECT_ID": "2009-039A", "EPOCH": "2025-12-04T14:44:47.477760", "MEAN_MOTION": 13.89927158, "ECCENTRICITY": 0.0020498, "INCLINATION": 82.9557, "RA_OF_ASC_NODE": 174.8042, "ARG_OF_PERICENTER": 95.4609, "MEAN_ANOMALY": 323.1065, "EPHEMERIS_TYPE": 0, "CLASSIFICATION_TYPE": "U", "NORAD_CAT_ID": 35635, "ELEMENT_SET_NO": 999, "REV_AT_EPOCH": 83037, "BSTAR": 9.1788235e-05, "MEAN_MOTION_DOT": 1.29e-06, "MEAN_MOTION_DDOT": 0}, "tle": {"line1": "1 35635U 09039A   25338.61443840  .00000129  00000+0  91788-4 0  9992", "line2": "2 35635  82.9557 174.8042 0020498  95.4609 323.1065 13.89927158830376"}}, "geometry": {"type": "Point", "coordinates": [-177.83383122075224, 46.84698984822254]}}, {"type": "Feature", "properties": {"norad_id": 36519, "name": "COSMOS 2463", "group": "musson", "lat": -61.86135774487707, "lon": -134.17184424915249, "alt_km": 991.0467708756269, "timestamp": "2025-12-04T21:36:16.142841+00:00", "meta": {"OBJECT_NAME": "COSMOS 2463", "OBJECT_ID": "2010-017A", "EPOCH": "2025-12-04T15:44:30.007104", "MEAN_MOTION": 13.71648077, "ECCENTRICITY": 0.00350695, "INCLINATION": 82.962, "RA_OF_ASC_NODE": 32.6527, "ARG_OF_PERICENTER": 311.2467, "MEAN_ANOMALY": 166.1745, "EPHEMERIS_TYPE": 0, "CLASSIFICATION_TYPE": "U", "NORAD_CAT_ID": 36519, "ELEMENT_SET_NO": 999, "REV_AT_EPOCH": 78126, "BSTAR": 9.5334403e-05, "MEAN_MOTION_DOT": 1.01e-06, "MEAN_MOTION_DDOT": 0}, "tle": {"line1": "1 36519U 10017A   25338.65590286  .00000101  00000+0  95334-4 0  9994", "line2": "2 36519  82.9620  32.6527 0035069 311.2467 166.1745 13.71648077781263"}}, "geometry": {"type": "Point", "coordinates": [-134.17184424915249, -61.86135774487707]}}]}